[{"OBJECT_NAME":"ONEWEB-0712","OBJECT_ID":"2022-166AQ","EPOCH":"2026-03-09T23:02:22.472448","MEAN_MOTION":13.16594202,"ECCENTRICITY":0.00015986,"INCLINATION":87.9008,"RA_OF_ASC_NODE":248.5085,"ARG_OF_PERICENTER":115.3565,"MEAN_ANOMALY":244.7732,"EPHEMERIS_TYPE":0,"CLASSIFICATION_TYPE":"U","NORAD_CAT_ID":54680,"ELEMENT_SET_NO":999,"REV_AT_EPOCH":15900,"BSTAR":6.9447627e-5,"MEAN_MOTION_DOT":3.9e-7,"MEAN_MOTION_DDOT":0},{"OBJECT_NAME":"COSMOS 2344","OBJECT_ID":"1997-028A","EPOCH":"2026-03-09T22:54:35.786304","MEAN_MOTION":11.07979922,"ECCENTRICITY":0.10894981,"INCLINATION":63.3108,"RA_OF_ASC_NODE":12.3271,"ARG_OF_PERICENTER":68.4624,"MEAN_ANOMALY":355.9382,"EPHEMERIS_TYPE":0,"CLASSIFICATION_TYPE":"U","NORAD_CAT_ID":24827,"ELEMENT_SET_NO":999,"REV_AT_EPOCH":16356,"BSTAR":0.00049241942,"MEAN_MOTION_DOT":-1.0e-8,"MEAN_MOTION_DDOT":0}]
